start=new Date('2023-03-08T00:00:00.000Z').valueOf();
sats=[{"APOAPSIS":"547.948","FILE":"3854072","GP_ID":"227672973","ELEMENT_SET_NO":"999","REV_AT_EPOCH":"10108","MEAN_MOTION_DDOT":"0.0000000000000","CENTER_NAME":"EARTH","TLE_LINE1":"1 48461U 21040AK  23066.75947658  .00041128  00000-0  27634-2 0  9998","OBJECT_NAME":"STARLINK-2693","ECCENTRICITY":"0.00010920","PERIOD":"95.592","OBJECT_ID":"2021-040AK","NORAD_CAT_ID":"48461","MEAN_MOTION_DOT":"0.00041128","ARG_OF_PERICENTER":"86.3978","MEAN_ELEMENT_THEORY":"SGP4","RCS_SIZE":"LARGE","EPHEMERIS_TYPE":"0","COUNTRY_CODE":"US","BSTAR":"0.00276340000000","PERIAPSIS":"546.436","TLE_LINE2":"2 48461  53.0512  75.4183 0001092  86.3978 273.7136 15.06407027101083","CLASSIFICATION_TYPE":"U","MEAN_ANOMALY":"273.7136","REF_FRAME":"TEME","TIME_SYSTEM":"UTC","MEAN_MOTION":"15.06407027","EPOCH":"2023-03-07T18:13:38.776512","LAUNCH_DATE":"2021-05-09","OBJECT_TYPE":"PAYLOAD","RA_OF_ASC_NODE":"75.4183","SEMIMAJOR_AXIS":"6925.327","INCLINATION":"53.0512","SITE":"AFETR","DECAY_DATE":null},{"CENTER_NAME":"EARTH","MEAN_MOTION_DDOT":"0.0000000000000","REV_AT_EPOCH":"10100","GP_ID":"227673222","FILE":"3854072","APOAPSIS":"548.866","ELEMENT_SET_NO":"999","ARG_OF_PERICENTER":"82.5505","MEAN_MOTION_DOT":"0.00032630","RCS_SIZE":"LARGE","EPHEMERIS_TYPE":"0","MEAN_ELEMENT_THEORY":"SGP4","TLE_LINE1":"1 48462U 21040AL  23066.74246979  .00032630  00000-0  22008-2 0  9994","OBJECT_NAME":"STARLINK-2683","ECCENTRICITY":"0.00022740","NORAD_CAT_ID":"48462","OBJECT_ID":"2021-040AL","PERIOD":"95.594","TIME_SYSTEM":"UTC","MEAN_MOTION":"15.06374698","OBJECT_TYPE":"PAYLOAD","RA_OF_ASC_NODE":"80.7714","LAUNCH_DATE":"2021-05-09","EPOCH":"2023-03-07T17:49:09.389856","TLE_LINE2":"2 48462  53.0532  80.7714 0002274  82.5505 277.5742 15.06374698101006","COUNTRY_CODE":"US","BSTAR":"0.00220080000000","PERIAPSIS":"545.716","REF_FRAME":"TEME","CLASSIFICATION_TYPE":"U","MEAN_ANOMALY":"277.5742","DECAY_DATE":null,"INCLINATION":"53.0532","SEMIMAJOR_AXIS":"6925.426","SITE":"AFETR"},{"EPHEMERIS_TYPE":"0","RCS_SIZE":"LARGE","MEAN_ELEMENT_THEORY":"SGP4","ARG_OF_PERICENTER":"97.2438","MEAN_MOTION_DOT":"0.00003482","NORAD_CAT_ID":"48463","PERIOD":"95.592","OBJECT_ID":"2021-040AM","ECCENTRICITY":"0.00013080","TLE_LINE1":"1 48463U 21040AM  23066.74885762  .00003482  00000-0  25252-3 0  9992","OBJECT_NAME":"STARLINK-2689","MEAN_MOTION_DDOT":"0.0000000000000","CENTER_NAME":"EARTH","REV_AT_EPOCH":"10101","ELEMENT_SET_NO":"999","GP_ID":"227673470","APOAPSIS":"548.120","FILE":"3854072","DECAY_DATE":null,"SITE":"AFETR","INCLINATION":"53.0518","SEMIMAJOR_AXIS":"6925.349","RA_OF_ASC_NODE":"80.4641","OBJECT_TYPE":"PAYLOAD","LAUNCH_DATE":"2021-05-09","EPOCH":"2023-03-07T17:58:21.298368","MEAN_MOTION":"15.06399707","TIME_SYSTEM":"UTC","REF_FRAME":"TEME","MEAN_ANOMALY":"262.8700","CLASSIFICATION_TYPE":"U","TLE_LINE2":"2 48463  53.0518  80.4641 0001308  97.2438 262.8700 15.06399707101012","PERIAPSIS":"546.309","COUNTRY_CODE":"US","BSTAR":"0.00025252000000"},{"ELEMENT_SET_NO":"999","APOAPSIS":"548.925","FILE":"3854072","GP_ID":"227674208","REV_AT_EPOCH":"10100","CENTER_NAME":"EARTH","MEAN_MOTION_DDOT":"0.0000000000000","OBJECT_ID":"2021-040AN","PERIOD":"95.594","NORAD_CAT_ID":"48464","ECCENTRICITY":"0.00023650","OBJECT_NAME":"STARLINK-2686","TLE_LINE1":"1 48464U 21040AN  23066.72768885  .00030854  00000-0  20825-2 0  9990","MEAN_ELEMENT_THEORY":"SGP4","EPHEMERIS_TYPE":"0","RCS_SIZE":"LARGE","MEAN_MOTION_DOT":"0.00030854","ARG_OF_PERICENTER":"84.7586","MEAN_ANOMALY":"275.3673","CLASSIFICATION_TYPE":"U","REF_FRAME":"TEME","PERIAPSIS":"545.649","BSTAR":"0.00208250000000","COUNTRY_CODE":"US","TLE_LINE2":"2 48464  53.0527  80.5596 0002365  84.7586 275.3673 15.06375929101009","EPOCH":"2023-03-07T17:27:52.316640","LAUNCH_DATE":"2021-05-09","RA_OF_ASC_NODE":"80.5596","OBJECT_TYPE":"PAYLOAD","MEAN_MOTION":"15.06375929","TIME_SYSTEM":"UTC","SITE":"AFETR","SEMIMAJOR_AXIS":"6925.422","INCLINATION":"53.0527","DECAY_DATE":null},{"TIME_SYSTEM":"UTC","MEAN_MOTION":"15.06391963","OBJECT_TYPE":"PAYLOAD","RA_OF_ASC_NODE":"80.5082","EPOCH":"2023-03-07T17:43:47.664768","LAUNCH_DATE":"2021-05-09","TLE_LINE2":"2 48465  53.0553  80.5082 0001274  92.0357 268.0778 15.06391963101017","BSTAR":"0.00033208000000","COUNTRY_CODE":"US","PERIAPSIS":"546.356","REF_FRAME":"TEME","CLASSIFICATION_TYPE":"U","MEAN_ANOMALY":"268.0778","DECAY_DATE":null,"INCLINATION":"53.0553","SEMIMAJOR_AXIS":"6925.373","SITE":"AFETR","CENTER_NAME":"EARTH","MEAN_MOTION_DDOT":"0.0000000000000","REV_AT_EPOCH":"10101","GP_ID":"227672474","APOAPSIS":"548.120","FILE":"3854072","ELEMENT_SET_NO":"999","ARG_OF_PERICENTER":"92.0357","MEAN_MOTION_DOT":"0.00004667","RCS_SIZE":"LARGE","EPHEMERIS_TYPE":"0","MEAN_ELEMENT_THEORY":"SGP4","TLE_LINE1":"1 48465U 21040AP  23066.73874612  .00004667  00000-0  33208-3 0  9991","OBJECT_NAME":"STARLINK-2681","ECCENTRICITY":"0.00012740","NORAD_CAT_ID":"48465","OBJECT_ID":"2021-040AP","PERIOD":"95.593"},{"MEAN_MOTION_DDOT":"0.0000000000000","CENTER_NAME":"EARTH","REV_AT_EPOCH":"10101","GP_ID":"227672723","APOAPSIS":"548.221","FILE":"3854072","ELEMENT_SET_NO":"999","ARG_OF_PERICENTER":"94.6101","MEAN_MOTION_DOT":"0.00008090","RCS_SIZE":"LARGE","EPHEMERIS_TYPE":"0","MEAN_ELEMENT_THEORY":"SGP4","OBJECT_NAME":"STARLINK-2687","TLE_LINE1":"1 48466U 21040AQ  23066.72400230  .00008090  00000-0  56161-3 0  9999","ECCENTRICITY":"0.00013880","NORAD_CAT_ID":"48466","OBJECT_ID":"2021-040AQ","PERIOD":"95.593","MEAN_MOTION":"15.06384825","TIME_SYSTEM":"UTC","OBJECT_TYPE":"PAYLOAD","RA_OF_ASC_NODE":"80.5765","EPOCH":"2023-03-07T17:22:33.798720","LAUNCH_DATE":"2021-05-09","TLE_LINE2":"2 48466  53.0541  80.5765 0001388  94.6101 265.5047 15.06384825101014","BSTAR":"0.00056161000000","COUNTRY_CODE":"US","PERIAPSIS":"546.299","REF_FRAME":"TEME","CLASSIFICATION_TYPE":"U","MEAN_ANOMALY":"265.5047","DECAY_DATE":null,"INCLINATION":"53.0541","SEMIMAJOR_AXIS":"6925.395","SITE":"AFETR"},{"APOAPSIS":"548.064","FILE":"3854072","GP_ID":"227673970","ELEMENT_SET_NO":"999","REV_AT_EPOCH":"10101","CENTER_NAME":"EARTH","MEAN_MOTION_DDOT":"0.0000000000000","TLE_LINE1":"1 48467U 21040AR  23066.74980160  .00005381  00000-0  37991-3 0  9997","OBJECT_NAME":"STARLINK-2659","ECCENTRICITY":"0.00011900","PERIOD":"95.593","OBJECT_ID":"2021-040AR","NORAD_CAT_ID":"48467","MEAN_MOTION_DOT":"0.00005381","ARG_OF_PERICENTER":"104.5899","MEAN_ELEMENT_THEORY":"SGP4","RCS_SIZE":"LARGE","EPHEMERIS_TYPE":"0","BSTAR":"0.00037991000000","COUNTRY_CODE":"US","PERIAPSIS":"546.416","TLE_LINE2":"2 48467  53.0526  80.4607 0001190 104.5899 255.5221 15.06391297101012","CLASSIFICATION_TYPE":"U","MEAN_ANOMALY":"255.5221","REF_FRAME":"TEME","MEAN_MOTION":"15.06391297","TIME_SYSTEM":"UTC","LAUNCH_DATE":"2021-05-09","EPOCH":"2023-03-07T17:59:42.858240","OBJECT_TYPE":"PAYLOAD","RA_OF_ASC_NODE":"80.4607","SEMIMAJOR_AXIS":"6925.375","INCLINATION":"53.0526","SITE":"AFETR","DECAY_DATE":null},{"PERIAPSIS":"545.956","COUNTRY_CODE":"US","BSTAR":"0.00092370000000","TLE_LINE2":"2 48468  53.0522  81.4362 0001783 113.1786 246.9391 15.06407574100980","MEAN_ANOMALY":"246.9391","CLASSIFICATION_TYPE":"U","REF_FRAME":"TEME","MEAN_MOTION":"15.06407574","TIME_SYSTEM":"UTC","EPOCH":"2023-03-07T12:46:33.259296","LAUNCH_DATE":"2021-05-09","RA_OF_ASC_NODE":"81.4362","OBJECT_TYPE":"PAYLOAD","SEMIMAJOR_AXIS":"6925.325","INCLINATION":"53.0522","SITE":"AFETR","DECAY_DATE":null,"APOAPSIS":"548.425","FILE":"3854072","GP_ID":"227673709","ELEMENT_SET_NO":"999","REV_AT_EPOCH":"10098","MEAN_MOTION_DDOT":"0.0000000000000","CENTER_NAME":"EARTH","ECCENTRICITY":"0.00017830","OBJECT_NAME":"STARLINK-2685","TLE_LINE1":"1 48468U 21040AS  23066.53232939  .00013506  00000-0  92370-3 0  9999","OBJECT_ID":"2021-040AS","PERIOD":"95.592","NORAD_CAT_ID":"48468","MEAN_MOTION_DOT":"0.00013506","ARG_OF_PERICENTER":"113.1786","MEAN_ELEMENT_THEORY":"SGP4","EPHEMERIS_TYPE":"0","RCS_SIZE":"LARGE"},{"TIME_SYSTEM":"UTC","MEAN_MOTION":"15.06386556","RA_OF_ASC_NODE":"80.4753","OBJECT_TYPE":"PAYLOAD","LAUNCH_DATE":"2021-05-09","EPOCH":"2023-03-07T17:54:25.009056","TLE_LINE2":"2 48469  53.0551  80.4753 0001851  84.6498 275.4702 15.06386556101018","PERIAPSIS":"545.973","BSTAR":"0.00079610000000","COUNTRY_CODE":"US","REF_FRAME":"TEME","MEAN_ANOMALY":"275.4702","CLASSIFICATION_TYPE":"U","DECAY_DATE":null,"INCLINATION":"53.0551","SEMIMAJOR_AXIS":"6925.390","SITE":"AFETR","MEAN_MOTION_DDOT":"0.0000000000000","CENTER_NAME":"EARTH","REV_AT_EPOCH":"10101","GP_ID":"227672974","APOAPSIS":"548.537","FILE":"3854072","ELEMENT_SET_NO":"999","ARG_OF_PERICENTER":"84.6498","MEAN_MOTION_DOT":"0.00011592","EPHEMERIS_TYPE":"0","RCS_SIZE":"LARGE","MEAN_ELEMENT_THEORY":"SGP4","ECCENTRICITY":"0.00018510","TLE_LINE1":"1 48469U 21040AT  23066.74612279  .00011592  00000-0  79610-3 0  9997","OBJECT_NAME":"STARLINK-2661","NORAD_CAT_ID":"48469","PERIOD":"95.593","OBJECT_ID":"2021-040AT"},{"DECAY_DATE":null,"INCLINATION":"53.0523","SEMIMAJOR_AXIS":"6925.338","SITE":"AFETR","MEAN_MOTION":"15.06403348","TIME_SYSTEM":"UTC","OBJECT_TYPE":"PAYLOAD","RA_OF_ASC_NODE":"80.4866","LAUNCH_DATE":"2021-05-09","EPOCH":"2023-03-07T17:47:44.449152","TLE_LINE2":"2 48470  53.0523  80.4866 0001553  89.5698 270.5469 15.06403348101003","COUNTRY_CODE":"US","BSTAR":"0.00132370000000","PERIAPSIS":"546.128","REF_FRAME":"TEME","CLASSIFICATION_TYPE":"U","MEAN_ANOMALY":"270.5469","ARG_OF_PERICENTER":"89.5698","MEAN_MOTION_DOT":"0.00019492","RCS_SIZE":"LARGE","EPHEMERIS_TYPE":"0","MEAN_ELEMENT_THEORY":"SGP4","TLE_LINE1":"1 48470U 21040AU  23066.74148668  .00019492  00000-0  13237-2 0  9994","OBJECT_NAME":"STARLINK-2675","ECCENTRICITY":"0.00015530","NORAD_CAT_ID":"48470","PERIOD":"95.592","OBJECT_ID":"2021-040AU","CENTER_NAME":"EARTH","MEAN_MOTION_DDOT":"0.0000000000000","REV_AT_EPOCH":"10100","GP_ID":"227673223","APOAPSIS":"548.279","FILE":"3854072","ELEMENT_SET_NO":"999"}];
